[{"OBJECT_NAME":"NIGERIASAT-X","OBJECT_ID":"2011-044C","EPOCH":"2026-03-09T22:53:29.882112","MEAN_MOTION":14.60784169,"ECCENTRICITY":0.00109862,"INCLINATION":97.8486,"RA_OF_ASC_NODE":58.2104,"ARG_OF_PERICENTER":290.128,"MEAN_ANOMALY":69.8739,"EPHEMERIS_TYPE":0,"CLASSIFICATION_TYPE":"U","NORAD_CAT_ID":37790,"ELEMENT_SET_NO":999,"REV_AT_EPOCH":77568,"BSTAR":0.00013273197,"MEAN_MOTION_DOT":6.05e-6,"MEAN_MOTION_DDOT":0},{"OBJECT_NAME":"SL-24 DEB","OBJECT_ID":"2004-025L","EPOCH":"2026-03-04T12:21:11.196288","MEAN_MOTION":14.09357263,"ECCENTRICITY":0.0284789,"INCLINATION":98.1586,"RA_OF_ASC_NODE":93.1285,"ARG_OF_PERICENTER":321.1874,"MEAN_ANOMALY":36.9144,"EPHEMERIS_TYPE":0,"CLASSIFICATION_TYPE":"U","NORAD_CAT_ID":37586,"ELEMENT_SET_NO":999,"REV_AT_EPOCH":79205,"BSTAR":0.0014972,"MEAN_MOTION_DOT":3.759e-5,"MEAN_MOTION_DDOT":0}]
